{"type": "FeatureCollection", "features": [{"type": "Feature", "properties": {"zone": "Moist Mesic"}, "geometry": {"type": "Polygon", "coordinates": [[[-155.95121, 19.74502], [-155.91811, 19.74533], [-155.89607, 19.74428], [-155.86712, 19.74244], [-155.86233, 19.74169], [-155.85854, 19.74015], [-155.8562, 19.73689], [-155.85498, 19.73298], [-155.85607, 19.7294], [-155.858, 19.72718], [-155.86153, 19.72537], [-155.86586, 19.72478], [-155.88058, 19.72404], [-155.88804, 19.72428], [-155.90228, 19.72409], [-155.90789, 19.7233], [-155.91048, 19.72224], [-155.9118, 19.72071], [-155.91202, 19.71902], [-155.91235, 19.71932], [-155.91374, 19.7193], [-155.91452, 19.71974], [-155.91714, 19.72212], [-155.91895, 19.72116], [-155.92138, 19.72052], [-155.92287, 19.72074], [-155.92538, 19.72456], [-155.92713, 19.72478], [-155.93054, 19.72748], [-155.93132, 19.72938], [-155.93214, 19.72993], [-155.93227, 19.73114], [-155.93522, 19.73153], [-155.93914, 19.73448], [-155.94094, 19.73429], [-155.94145, 19.7351], [-155.94434, 19.73606], [-155.94467, 19.73683], [-155.94634, 19.7369], [-155.94849, 19.73821], [-155.95014, 19.74137], [-155.95374, 19.74441], [-155.95121, 19.74502]]]}}, {"type": "Feature", "properties": {"zone": "Arid"}, "geometry": {"type": "Polygon", "coordinates": [[[-155.64442, 19.53488], [-155.63457, 19.54309], [-155.62159, 19.55111], [-155.59964, 19.5587], [-155.57918, 19.56231], [-155.54376, 19.56163], [-155.5498, 19.55036], [-155.55289, 19.54524], [-155.57681, 19.50933], [-155.58129, 19.50152], [-155.58208, 19.49665], [-155.58343, 19.49476], [-155.58636, 19.49342], [-155.58755, 19.49123], [-155.5877, 19.4873], [-155.59337, 19.4867], [-155.59561, 19.48571], [-155.5974, 19.48282], [-155.59859, 19.48198], [-155.59798, 19.49135], [-155.5985, 19.49384], [-155.60021, 19.49692], [-155.60418, 19.49934], [-155.60631, 19.50108], [-155.60776, 19.50165], [-155.61051, 19.5035], [-155.6115, 19.50367], [-155.61596, 19.50707], [-155.62087, 19.51533], [-155.62215, 19.51633], [-155.62514, 19.52039], [-155.62825, 19.52194], [-155.63257, 19.52331], [-155.63394, 19.5246], [-155.63754, 19.52678], [-155.63787, 19.52755], [-155.63934, 19.52838], [-155.64179, 19.53197], [-155.64415, 19.53377], [-155.64442, 19.53488]]]}}, {"type": "Feature", "properties": {"zone": "Moderately Dry"}, "geometry": {"type": "MultiPolygon", "coordinates": [[[[-155.98636, 19.77193], [-155.9804, 19.77629], [-155.97409, 19.77904], [-155.96161, 19.78196], [-155.93703, 19.78311], [-155.93176, 19.78458], [-155.92173, 19.78964], [-155.91201, 19.79247], [-155.89759, 19.79614], [-155.88516, 19.79645], [-155.876, 19.79942], [-155.86086, 19.81143], [-155.8552, 19.81839], [-155.85151, 19.82355], [-155.84938, 19.83396], [-155.84821, 19.83733], [-155.84512, 19.83963], [-155.83984, 19.84162], [-155.83402, 19.84257], [-155.82823, 19.8422], [-155.8202, 19.83965], [-155.81327, 19.83545], [-155.80534, 19.82765], [-155.79705, 19.81118], [-155.79202, 19.79323], [-155.78932, 19.76665], [-155.79254, 19.74018], [-155.79882, 19.72244], [-155.80657, 19.71187], [-155.82001, 19.70069], [-155.82669, 19.69741], [-155.83471, 19.69651], [-155.84241, 19.69769], [-155.85641, 19.70107], [-155.86187, 19.70404], [-155.86622, 19.70699], [-155.87117, 19.70786], [-155.88253, 19.70518], [-155.88368, 19.7038], [-155.88404, 19.70494], [-155.88576, 19.70521], [-155.88922, 19.70859], [-155.89043, 19.70851], [-155.89355, 19.7099], [-155.89536, 19.71029], [-155.89458, 19.71215], [-155.89278, 19.71418], [-155.88967, 19.71491], [-155.88407, 19.7154], [-155.87466, 19.71543], [-155.86733, 19.71471], [-155.86136, 19.71304], [-155.85635, 19.71031], [-155.84978, 19.70755], [-155.84402, 19.70578], [-155.83948, 19.70521], [-155.83596, 19.70544], [-155.8309, 19.70895], [-155.82909, 19.71143], [-155.82703, 19.71724], [-155.82329, 19.74559], [-155.8231, 19.76398], [-155.82405, 19.76976], [-155.82555, 19.77414], [-155.82762, 19.77668], [-155.83024, 19.77823], [-155.83341, 19.77862], [-155.83624, 19.77834], [-155.83838, 19.77737], [-155.84054, 19.77524], [-155.84465, 19.77264], [-155.84911, 19.77038], [-155.87082, 19.7619], [-155.88712, 19.75908], [-155.89563, 19.75841], [-155.90428, 19.75864], [-155.91431, 19.75973], [-155.94369, 19.76508], [-155.95164, 19.76513], [-155.95802, 19.7639], [-155.96496, 19.76134], [-155.97194, 19.75628], [-155.97411, 19.75405], [-155.97896, 19.75661], [-155.97964, 19.7574], [-155.98032, 19.75934], [-155.98108, 19.76023], [-155.98424, 19.76239], [-155.99017, 19.76286], [-155.99255, 19.76372], [-155.98636, 19.77193]]], [[[-155.81301, 19.65099], [-155.8054, 19.64992], [-155.8103, 19.64956], [-155.81256, 19.65032], [-155.81301, 19.65099]]], [[[-155.78219, 19.64789], [-155.75584, 19.64928], [-155.74236, 19.64741], [-155.73526, 19.64596], [-155.72992, 19.64206], [-155.72271, 19.63377], [-155.71831, 19.62439], [-155.716, 19.61338], [-155.71519, 19.60649], [-155.71791, 19.60678], [-155.72352, 19.60954], [-155.72922, 19.61081], [-155.73313, 19.61259], [-155.73922, 19.61878], [-155.74151, 19.61954], [-155.74611, 19.62214], [-155.75038, 19.62693], [-155.75304, 19.62825], [-155.75486, 19.62955], [-155.76502, 19.63218], [-155.76888, 19.6322], [-155.77255, 19.63361], [-155.7767, 19.63597], [-155.77983, 19.6384], [-155.78061, 19.63956], [-155.78147, 19.64186], [-155.78693, 19.64831], [-155.78219, 19.64789]]], [[[-155.49589, 19.65072], [-155.50158, 19.66101], [-155.50672, 19.67747], [-155.5086, 19.68718], [-155.50832, 19.69605], [-155.50667, 19.70375], [-155.5031, 19.71137], [-155.4998, 19.71533], [-155.49589, 19.71817], [-155.48586, 19.72194], [-155.47302, 19.72562], [-155.47588, 19.71414], [-155.47932, 19.69812], [-155.48039, 19.69425], [-155.48179, 19.69188], [-155.48222, 19.68693], [-155.48362, 19.68177], [-155.49168, 19.66338], [-155.49589, 19.65072]]], [[[-155.52031, 19.88834], [-155.52923, 19.88561], [-155.53104, 19.88347], [-155.53234, 19.88082], [-155.53379, 19.87884], [-155.53559, 19.87771], [-155.54608, 19.87432], [-155.56625, 19.86485], [-155.57623, 19.86103], [-155.58373, 19.85716], [-155.60171, 19.84238], [-155.60963, 19.83518], [-155.61537, 19.83094], [-155.6227, 19.82707], [-155.63194, 19.82423], [-155.64027, 19.82305], [-155.64858, 19.82271], [-155.65545, 19.82351], [-155.66141, 19.82546], [-155.66754, 19.82808], [-155.67031, 19.83064], [-155.67306, 19.8347], [-155.67507, 19.83992], [-155.67569, 19.84378], [-155.6758, 19.84695], [-155.67537, 19.85096], [-155.67324, 19.85961], [-155.66821, 19.8723], [-155.66066, 19.88687], [-155.65651, 19.89064], [-155.64329, 19.89774], [-155.63774, 19.90131], [-155.62782, 19.91074], [-155.62473, 19.91452], [-155.6221, 19.92199], [-155.62166, 19.92616], [-155.62229, 19.92985], [-155.6305, 19.94271], [-155.63792, 19.95096], [-155.64973, 19.96105], [-155.67058, 19.97815], [-155.68609, 19.98906], [-155.71655, 20.01219], [-155.72943, 20.02246], [-155.73409, 20.02806], [-155.73618, 20.02944], [-155.73935, 20.03016], [-155.74757, 20.03491], [-155.77179, 20.05257], [-155.79334, 20.07161], [-155.80625, 20.08527], [-155.8019, 20.08733], [-155.79852, 20.08813], [-155.79701, 20.08936], [-155.79407, 20.09012], [-155.79186, 20.09138], [-155.79005, 20.09201], [-155.78832, 20.09321], [-155.77689, 20.0808], [-155.75621, 20.06453], [-155.73859, 20.05229], [-155.71539, 20.03928], [-155.69608, 20.03113], [-155.67538, 20.02306], [-155.65694, 20.01703], [-155.63376, 20.01218], [-155.63305, 20.00912], [-155.62948, 19.99918], [-155.62711, 19.99501], [-155.6214, 19.989], [-155.61628, 19.98657], [-155.61419, 19.98524], [-155.61317, 19.98393], [-155.60622, 19.98062], [-155.60384, 19.97845], [-155.60327, 19.97756], [-155.60087, 19.97717], [-155.59933, 19.9765], [-155.59606, 19.97391], [-155.59528, 19.97195], [-155.59255, 19.97007], [-155.59164, 19.96898], [-155.5897, 19.96389], [-155.58954, 19.95963], [-155.58838, 19.95802], [-155.58644, 19.9571], [-155.58271, 19.95671], [-155.57763, 19.95741], [-155.57646, 19.95734], [-155.57459, 19.95666], [-155.57075, 19.95687], [-155.56807, 19.95636], [-155.56337, 19.95408], [-155.56149, 19.95356], [-155.56095, 19.9528], [-155.55725, 19.95099], [-155.55601, 19.94981], [-155.55371, 19.94884], [-155.55146, 19.94851], [-155.54677, 19.94603], [-155.5434, 19.94247], [-155.54271, 19.9408], [-155.54275, 19.93965], [-155.54157, 19.93532], [-155.54037, 19.93207], [-155.53946, 19.9305], [-155.53889, 19.92782], [-155.53737, 19.92707], [-155.53657, 19.92563], [-155.53399, 19.9242], [-155.53265, 19.92064], [-155.53321, 19.9191], [-155.5328, 19.91741], [-155.52815, 19.9121], [-155.527, 19.90752], [-155.52565, 19.90667], [-155.52548, 19.90516], [-155.52447, 19.90283], [-155.52389, 19.89963], [-155.52304, 19.89825], [-155.52275, 19.89607], [-155.52031, 19.88834]]]]}}, {"type": "Feature", "properties": {"zone": "Seasonal Mesic"}, "geometry": {"type": "MultiPolygon", "coordinates": [[[[-155.77128, 20.09657], [-155.74099, 20.06975], [-155.72481, 20.05787], [-155.70633, 20.04749], [-155.68679, 20.03925], [-155.66946, 20.03427], [-155.63801, 20.02805], [-155.63755, 20.02583], [-155.63661, 20.02446], [-155.63376, 20.01218], [-155.65694, 20.01703], [-155.67538, 20.02306], [-155.69608, 20.03113], [-155.71539, 20.03928], [-155.73859, 20.05229], [-155.75621, 20.06453], [-155.77689, 20.0808], [-155.78832, 20.09321], [-155.78711, 20.09435], [-155.7848, 20.09525], [-155.78375, 20.09608], [-155.78079, 20.09692], [-155.77855, 20.0966], [-155.77557, 20.09763], [-155.77228, 20.09779], [-155.77128, 20.09657]]], [[[-155.97194, 19.75628], [-155.96496, 19.76134], [-155.95802, 19.7639], [-155.95164, 19.76513], [-155.94369, 19.76508], [-155.91431, 19.75973], [-155.90428, 19.75864], [-155.89563, 19.75841], [-155.88712, 19.75908], [-155.87082, 19.7619], [-155.84911, 19.77038], [-155.84465, 19.77264], [-155.84054, 19.77524], [-155.83838, 19.77737], [-155.83624, 19.77834], [-155.83341, 19.77862], [-155.83024, 19.77823], [-155.82762, 19.77668], [-155.82555, 19.77414], [-155.82405, 19.76976], [-155.8231, 19.76398], [-155.82329, 19.74559], [-155.82703, 19.71724], [-155.82909, 19.71143], [-155.8309, 19.70895], [-155.83596, 19.70544], [-155.83948, 19.70521], [-155.84402, 19.70578], [-155.84978, 19.70755], [-155.85635, 19.71031], [-155.86136, 19.71304], [-155.86733, 19.71471], [-155.87466, 19.71543], [-155.88407, 19.7154], [-155.88967, 19.71491], [-155.89278, 19.71418], [-155.89458, 19.71215], [-155.89536, 19.71029], [-155.90001, 19.71115], [-155.90553, 19.71335], [-155.90699, 19.71485], [-155.90653, 19.71645], [-155.90672, 19.71683], [-155.91014, 19.71793], [-155.91202, 19.71902], [-155.9118, 19.72071], [-155.91048, 19.72224], [-155.90789, 19.7233], [-155.90228, 19.72409], [-155.88804, 19.72428], [-155.88058, 19.72404], [-155.86586, 19.72478], [-155.86153, 19.72537], [-155.858, 19.72718], [-155.85607, 19.7294], [-155.85498, 19.73298], [-155.8562, 19.73689], [-155.85854, 19.74015], [-155.86233, 19.74169], [-155.86712, 19.74244], [-155.89607, 19.74428], [-155.91811, 19.74533], [-155.95121, 19.74502], [-155.95374, 19.74441], [-155.95457, 19.74522], [-155.95665, 19.74622], [-155.96432, 19.74902], [-155.96622, 19.75003], [-155.96789, 19.75037], [-155.97012, 19.75229], [-155.97333, 19.75335], [-155.97411, 19.75405], [-155.97194, 19.75628]]]]}}, {"type": "Feature", "properties": {"zone": "Moist Mesic"}, "geometry": {"type": "Polygon", "coordinates": [[[-155.63801, 20.02805], [-155.66946, 20.03427], [-155.68679, 20.03925], [-155.70633, 20.04749], [-155.72481, 20.05787], [-155.74099, 20.06975], [-155.77128, 20.09657], [-155.77228, 20.09779], [-155.76842, 20.0983], [-155.76683, 20.09932], [-155.76277, 20.0995], [-155.76072, 20.09993], [-155.75952, 20.10064], [-155.75774, 20.10064], [-155.75749, 20.10075], [-155.75761, 20.10144], [-155.75718, 20.10188], [-155.75508, 20.10194], [-155.75448, 20.10253], [-155.75105, 20.09713], [-155.7427, 20.08627], [-155.73299, 20.07486], [-155.72321, 20.06658], [-155.70519, 20.0558], [-155.68847, 20.04896], [-155.67554, 20.04531], [-155.66374, 20.0437], [-155.65361, 20.04325], [-155.64658, 20.04396], [-155.64217, 20.04534], [-155.64226, 20.04264], [-155.64159, 20.04018], [-155.63905, 20.03616], [-155.63791, 20.03316], [-155.63819, 20.02966], [-155.63801, 20.02805]]]}}, {"type": "Feature", "properties": {"zone": "Very Dry"}, "geometry": {"type": "Polygon", "coordinates": [[[-156.01064, 19.76199], [-156.00664, 19.77207], [-156.00173, 19.77968], [-155.99467, 19.78859], [-155.98875, 19.79334], [-155.97379, 19.79994], [-155.96131, 19.80625], [-155.9527, 19.81304], [-155.92742, 19.82331], [-155.89372, 19.83936], [-155.86878, 19.84945], [-155.86699, 19.85093], [-155.86423, 19.85623], [-155.86117, 19.85943], [-155.8215, 19.88172], [-155.80544, 19.88912], [-155.78531, 19.89745], [-155.77869, 19.90151], [-155.77632, 19.90464], [-155.77486, 19.90729], [-155.77371, 19.91161], [-155.77168, 19.91559], [-155.76593, 19.9205], [-155.762, 19.92227], [-155.76003, 19.9239], [-155.7589, 19.92689], [-155.7583, 19.93056], [-155.757, 19.93354], [-155.75518, 19.9361], [-155.75175, 19.94841], [-155.75148, 19.96136], [-155.75338, 19.97226], [-155.75872, 19.99659], [-155.76389, 20.01165], [-155.76712, 20.01789], [-155.76981, 20.02496], [-155.7717, 20.02767], [-155.77867, 20.03265], [-155.7926, 20.0436], [-155.80215, 20.05272], [-155.8049, 20.05644], [-155.80882, 20.06404], [-155.81141, 20.06693], [-155.81732, 20.07213], [-155.81884, 20.07391], [-155.8158, 20.07567], [-155.81427, 20.07799], [-155.8137, 20.08103], [-155.81317, 20.08183], [-155.80851, 20.08346], [-155.80711, 20.08489], [-155.80625, 20.08527], [-155.79334, 20.07161], [-155.77179, 20.05257], [-155.74757, 20.03491], [-155.73935, 20.03016], [-155.73618, 20.02944], [-155.73409, 20.02806], [-155.72943, 20.02246], [-155.71655, 20.01219], [-155.68609, 19.98906], [-155.67058, 19.97815], [-155.64973, 19.96105], [-155.63792, 19.95096], [-155.6305, 19.94271], [-155.62229, 19.92985], [-155.62166, 19.92616], [-155.6221, 19.92199], [-155.62473, 19.91452], [-155.62782, 19.91074], [-155.63774, 19.90131], [-155.64329, 19.89774], [-155.65651, 19.89064], [-155.66066, 19.88687], [-155.66821, 19.8723], [-155.67324, 19.85961], [-155.67537, 19.85096], [-155.6758, 19.84695], [-155.67569, 19.84378], [-155.67507, 19.83992], [-155.67306, 19.8347], [-155.67031, 19.83064], [-155.66754, 19.82808], [-155.66141, 19.82546], [-155.65545, 19.82351], [-155.64858, 19.82271], [-155.64027, 19.82305], [-155.63194, 19.82423], [-155.6227, 19.82707], [-155.61537, 19.83094], [-155.60963, 19.83518], [-155.60171, 19.84238], [-155.58373, 19.85716], [-155.57623, 19.86103], [-155.56625, 19.86485], [-155.54608, 19.87432], [-155.53559, 19.87771], [-155.53379, 19.87884], [-155.53234, 19.88082], [-155.53104, 19.88347], [-155.52923, 19.88561], [-155.52031, 19.88834], [-155.5198, 19.88676], [-155.5185, 19.88555], [-155.51664, 19.88243], [-155.51602, 19.87973], [-155.51218, 19.8746], [-155.51117, 19.87367], [-155.51068, 19.87262], [-155.50997, 19.87187], [-155.50919, 19.87157], [-155.50809, 19.86988], [-155.50972, 19.86893], [-155.51369, 19.86549], [-155.51606, 19.86203], [-155.51932, 19.85825], [-155.52078, 19.85594], [-155.52186, 19.85496], [-155.52739, 19.85289], [-155.53332, 19.848], [-155.5355, 19.84536], [-155.53728, 19.84456], [-155.54557, 19.84522], [-155.54753, 19.84459], [-155.55004, 19.8428], [-155.55059, 19.84164], [-155.55062, 19.84031], [-155.54948, 19.83594], [-155.54956, 19.83227], [-155.54889, 19.82239], [-155.54822, 19.82071], [-155.54597, 19.81849], [-155.54495, 19.81688], [-155.54276, 19.81199], [-155.53775, 19.80672], [-155.5317, 19.80075], [-155.50881, 19.78125], [-155.50096, 19.77708], [-155.49362, 19.77385], [-155.48658, 19.77271], [-155.48202, 19.77128], [-155.47111, 19.76973], [-155.46584, 19.76839], [-155.46792, 19.75318], [-155.47302, 19.72562], [-155.48586, 19.72194], [-155.49589, 19.71817], [-155.4998, 19.71533], [-155.5031, 19.71137], [-155.50667, 19.70375], [-155.50832, 19.69605], [-155.5086, 19.68718], [-155.50672, 19.67747], [-155.50158, 19.66101], [-155.49589, 19.65072], [-155.50093, 19.63649], [-155.51154, 19.61823], [-155.52125, 19.59875], [-155.52887, 19.58737], [-155.53235, 19.5802], [-155.54145, 19.56578], [-155.54376, 19.56163], [-155.57918, 19.56231], [-155.59964, 19.5587], [-155.62159, 19.55111], [-155.63457, 19.54309], [-155.64453, 19.53476], [-155.64891, 19.54001], [-155.65175, 19.54194], [-155.65306, 19.54438], [-155.65469, 19.546], [-155.6569, 19.54754], [-155.6579, 19.55014], [-155.66137, 19.55272], [-155.66238, 19.55452], [-155.6651, 19.55554], [-155.66675, 19.55677], [-155.6677, 19.5583], [-155.66852, 19.55888], [-155.67064, 19.56119], [-155.67073, 19.56172], [-155.67185, 19.56266], [-155.67869, 19.56718], [-155.68064, 19.56798], [-155.68331, 19.56964], [-155.6848, 19.57452], [-155.68524, 19.57768], [-155.687, 19.58171], [-155.68882, 19.58341], [-155.69239, 19.58485], [-155.69529, 19.58718], [-155.69605, 19.58879], [-155.69905, 19.59135], [-155.69898, 19.59415], [-155.69997, 19.59595], [-155.70074, 19.59668], [-155.70317, 19.59787], [-155.70527, 19.60034], [-155.70649, 19.60131], [-155.70818, 19.60158], [-155.70898, 19.60207], [-155.71241, 19.60548], [-155.71519, 19.60649], [-155.716, 19.61338], [-155.71831, 19.62439], [-155.72271, 19.63377], [-155.72992, 19.64206], [-155.73526, 19.64596], [-155.74236, 19.64741], [-155.75584, 19.64928], [-155.78219, 19.64789], [-155.78693, 19.64831], [-155.78912, 19.6506], [-155.79245, 19.65121], [-155.79337, 19.65082], [-155.79394, 19.65095], [-155.7946, 19.65172], [-155.80109, 19.65045], [-155.80477, 19.65023], [-155.8054, 19.64992], [-155.81301, 19.65099], [-155.8134, 19.65182], [-155.81504, 19.65222], [-155.81701, 19.65565], [-155.81803, 19.65608], [-155.81904, 19.65745], [-155.81884, 19.65916], [-155.818, 19.66084], [-155.81804, 19.66318], [-155.81764, 19.6642], [-155.81929, 19.66516], [-155.82097, 19.66788], [-155.82153, 19.66805], [-155.82301, 19.66763], [-155.82475, 19.66888], [-155.82613, 19.66907], [-155.82622, 19.67078], [-155.82736, 19.6718], [-155.82791, 19.67288], [-155.82722, 19.67521], [-155.82722, 19.67643], [-155.82889, 19.6787], [-155.83021, 19.67865], [-155.83058, 19.67894], [-155.83139, 19.68041], [-155.83135, 19.68113], [-155.8342, 19.68178], [-155.83421, 19.68239], [-155.83814, 19.68534], [-155.83822, 19.68672], [-155.84202, 19.68818], [-155.84368, 19.68829], [-155.84749, 19.69112], [-155.84904, 19.69133], [-155.85027, 19.69222], [-155.85224, 19.69245], [-155.85294, 19.69226], [-155.85471, 19.69353], [-155.85708, 19.69275], [-155.85944, 19.69269], [-155.8603, 19.69347], [-155.8604, 19.69424], [-155.86257, 19.6945], [-155.86366, 19.69565], [-155.86534, 19.69555], [-155.86631, 19.69596], [-155.86736, 19.6952], [-155.87036, 19.69619], [-155.87101, 19.69673], [-155.87134, 19.69753], [-155.87527, 19.69885], [-155.87739, 19.70119], [-155.87775, 19.70201], [-155.88028, 19.7021], [-155.88088, 19.70294], [-155.88188, 19.70356], [-155.88366, 19.7038], [-155.88253, 19.70518], [-155.87117, 19.70786], [-155.86622, 19.70699], [-155.86187, 19.70404], [-155.85641, 19.70107], [-155.84241, 19.69769], [-155.83471, 19.69651], [-155.82669, 19.69741], [-155.82001, 19.70069], [-155.80657, 19.71187], [-155.79882, 19.72244], [-155.79254, 19.74018], [-155.78932, 19.76665], [-155.79202, 19.79323], [-155.79705, 19.81118], [-155.80534, 19.82765], [-155.81327, 19.83545], [-155.8202, 19.83965], [-155.82823, 19.8422], [-155.83402, 19.84257], [-155.83984, 19.84162], [-155.84512, 19.83963], [-155.84821, 19.83733], [-155.84938, 19.83396], [-155.85151, 19.82355], [-155.8552, 19.81839], [-155.86086, 19.81143], [-155.876, 19.79942], [-155.88516, 19.79645], [-155.89759, 19.79614], [-155.91201, 19.79247], [-155.92173, 19.78964], [-155.93176, 19.78458], [-155.93703, 19.78311], [-155.96161, 19.78196], [-155.97409, 19.77904], [-155.9804, 19.77629], [-155.98636, 19.77193], [-155.99255, 19.76372], [-155.99373, 19.7639], [-155.99549, 19.76504], [-155.99769, 19.76572], [-155.99962, 19.76535], [-156.00167, 19.76435], [-156.00497, 19.76394], [-156.00938, 19.76208], [-156.01064, 19.76199]]]}}, {"type": "Feature", "properties": {"zone": "Arid"}, "geometry": {"type": "Polygon", "coordinates": [[[-155.46584, 19.76839], [-155.47656, 19.77067], [-155.48202, 19.77128], [-155.48658, 19.77271], [-155.49362, 19.77385], [-155.50096, 19.77708], [-155.50881, 19.78125], [-155.5317, 19.80075], [-155.54276, 19.81199], [-155.54495, 19.81688], [-155.54597, 19.81849], [-155.54822, 19.82071], [-155.54889, 19.82239], [-155.54956, 19.83227], [-155.54948, 19.83594], [-155.55062, 19.84031], [-155.55059, 19.84164], [-155.55004, 19.8428], [-155.54753, 19.84459], [-155.54557, 19.84522], [-155.53728, 19.84456], [-155.5355, 19.84536], [-155.53332, 19.848], [-155.52739, 19.85289], [-155.52186, 19.85496], [-155.52078, 19.85594], [-155.51932, 19.85825], [-155.51606, 19.86203], [-155.51369, 19.86549], [-155.50972, 19.86893], [-155.50809, 19.86988], [-155.50615, 19.86746], [-155.50348, 19.86542], [-155.50064, 19.86393], [-155.49984, 19.86239], [-155.49554, 19.85765], [-155.49278, 19.85551], [-155.49188, 19.85428], [-155.4906, 19.8492], [-155.48974, 19.84765], [-155.48689, 19.84519], [-155.48562, 19.84187], [-155.48548, 19.83988], [-155.4849, 19.83812], [-155.48278, 19.83483], [-155.47998, 19.82899], [-155.47872, 19.82769], [-155.47842, 19.82607], [-155.47749, 19.82538], [-155.47544, 19.82547], [-155.47435, 19.82635], [-155.47085, 19.82617], [-155.46942, 19.82583], [-155.46868, 19.82509], [-155.46914, 19.8228], [-155.4681, 19.82113], [-155.46797, 19.81927], [-155.46823, 19.81887], [-155.46952, 19.81836], [-155.47209, 19.81493], [-155.47311, 19.81478], [-155.47337, 19.81424], [-155.4733, 19.81355], [-155.47262, 19.81292], [-155.47238, 19.81212], [-155.47228, 19.80869], [-155.47091, 19.80525], [-155.46813, 19.80391], [-155.46617, 19.80067], [-155.46614, 19.80002], [-155.46489, 19.79899], [-155.46523, 19.79061], [-155.46458, 19.77533], [-155.46584, 19.76839]]]}}, {"type": "Feature", "properties": {"zone": "Arid"}, "geometry": {"type": "MultiPolygon", "coordinates": [[[[-155.83138, 19.97408], [-155.83108, 19.9756], [-155.83238, 19.9772], [-155.8319, 19.9777], [-155.83116, 19.97732], [-155.83085, 19.97767], [-155.83124, 19.97857], [-155.83114, 19.97922], [-155.83015, 19.97857], [-155.82932, 19.97921], [-155.82834, 19.98229], [-155.82988, 19.98439], [-155.8311, 19.98454], [-155.83074, 19.9847], [-155.83114, 19.98516], [-155.82982, 19.98693], [-155.82995, 19.9879], [-155.82902, 19.98778], [-155.82881, 19.98838], [-155.8278, 19.98837], [-155.82761, 19.98923], [-155.82688, 19.98967], [-155.82605, 19.99251], [-155.82579, 19.99441], [-155.82625, 19.99518], [-155.82726, 19.99543], [-155.827, 19.99584], [-155.82732, 19.99601], [-155.82736, 19.99698], [-155.82778, 19.99702], [-155.82808, 19.99735], [-155.82785, 19.99746], [-155.82822, 19.99762], [-155.8276, 19.99776], [-155.82733, 19.99835], [-155.82803, 19.99969], [-155.82757, 20.00006], [-155.82733, 20.00164], [-155.82671, 20.00228], [-155.82693, 20.00269], [-155.8257, 20.00276], [-155.82513, 20.00312], [-155.82491, 20.00371], [-155.82498, 20.0057], [-155.82668, 20.00644], [-155.82643, 20.00685], [-155.82687, 20.00773], [-155.8262, 20.00894], [-155.8257, 20.00909], [-155.82576, 20.00962], [-155.82516, 20.00977], [-155.82502, 20.0102], [-155.82584, 20.01124], [-155.82529, 20.01198], [-155.82501, 20.01196], [-155.82482, 20.01253], [-155.82481, 20.01293], [-155.82541, 20.01351], [-155.82473, 20.0137], [-155.82511, 20.01391], [-155.82496, 20.01424], [-155.82546, 20.01439], [-155.82504, 20.01541], [-155.82522, 20.01566], [-155.82346, 20.01576], [-155.82317, 20.0165], [-155.82332, 20.01707], [-155.8227, 20.01777], [-155.82267, 20.0186], [-155.82328, 20.01911], [-155.82301, 20.01996], [-155.8232, 20.02075], [-155.82299, 20.02149], [-155.82243, 20.02184], [-155.8227, 20.02237], [-155.82229, 20.02299], [-155.82338, 20.02459], [-155.82355, 20.02624], [-155.82299, 20.02801], [-155.8233, 20.02871], [-155.82489, 20.0275], [-155.82569, 20.02741], [-155.82873, 20.02885], [-155.83371, 20.03439], [-155.83384, 20.03476], [-155.83394, 20.03729], [-155.83372, 20.03458], [-155.83077, 20.03121], [-155.82922, 20.03128], [-155.82925, 20.03202], [-155.82726, 20.03228], [-155.8266, 20.03276], [-155.82599, 20.0319], [-155.82519, 20.03204], [-155.82971, 20.03724], [-155.82888, 20.03782], [-155.82714, 20.03715], [-155.82903, 20.03798], [-155.83002, 20.03739], [-155.83104, 20.03789], [-155.83155, 20.03843], [-155.83131, 20.0384], [-155.83103, 20.03905], [-155.83174, 20.03951], [-155.83205, 20.03908], [-155.83194, 20.03982], [-155.83288, 20.0411], [-155.83426, 20.04189], [-155.83647, 20.04414], [-155.83636, 20.04477], [-155.83762, 20.0461], [-155.83853, 20.04782], [-155.83814, 20.04885], [-155.83885, 20.04996], [-155.83997, 20.05077], [-155.84065, 20.05063], [-155.84137, 20.05127], [-155.8423, 20.05139], [-155.84257, 20.05212], [-155.84359, 20.05231], [-155.84339, 20.05313], [-155.84438, 20.05346], [-155.84415, 20.05408], [-155.84306, 20.05439], [-155.84326, 20.05528], [-155.84398, 20.05576], [-155.84292, 20.05613], [-155.84068, 20.05769], [-155.83774, 20.06031], [-155.83612, 20.06225], [-155.83394, 20.06335], [-155.83194, 20.06635], [-155.82738, 20.06768], [-155.82677, 20.06833], [-155.82621, 20.06978], [-155.82152, 20.07207], [-155.8197, 20.0736], [-155.81884, 20.07391], [-155.81732, 20.07213], [-155.81141, 20.06693], [-155.80882, 20.06404], [-155.8049, 20.05644], [-155.80215, 20.05272], [-155.7926, 20.0436], [-155.77867, 20.03265], [-155.7717, 20.02767], [-155.76981, 20.02496], [-155.76712, 20.01789], [-155.76389, 20.01165], [-155.75872, 19.99659], [-155.75338, 19.97226], [-155.75148, 19.96136], [-155.75175, 19.94841], [-155.75518, 19.9361], [-155.757, 19.93354], [-155.7583, 19.93056], [-155.7589, 19.92689], [-155.76003, 19.9239], [-155.762, 19.92227], [-155.76593, 19.9205], [-155.77168, 19.91559], [-155.77371, 19.91161], [-155.77486, 19.90729], [-155.77632, 19.90464], [-155.77869, 19.90151], [-155.78531, 19.89745], [-155.80544, 19.88912], [-155.8215, 19.88172], [-155.86117, 19.85943], [-155.86423, 19.85623], [-155.86699, 19.85093], [-155.86878, 19.84945], [-155.89372, 19.83936], [-155.92742, 19.82331], [-155.9527, 19.81304], [-155.96131, 19.80625], [-155.97379, 19.79994], [-155.98875, 19.79334], [-155.99467, 19.78859], [-156.00173, 19.77968], [-156.00664, 19.77207], [-156.01064, 19.76199], [-156.01403, 19.76266], [-156.01874, 19.76422], [-156.02198, 19.76409], [-156.02397, 19.76475], [-156.02522, 19.7663], [-156.02877, 19.76931], [-156.03128, 19.77065], [-156.03207, 19.77205], [-156.03348, 19.77305], [-156.03556, 19.77384], [-156.03597, 19.77556], [-156.03693, 19.77673], [-156.039, 19.77704], [-156.04006, 19.77762], [-156.04054, 19.78008], [-156.04009, 19.78213], [-156.03958, 19.78159], [-156.03828, 19.78109], [-156.03763, 19.78144], [-156.03656, 19.78297], [-156.03703, 19.78461], [-156.03866, 19.7867], [-156.03816, 19.78788], [-156.03729, 19.78832], [-156.03589, 19.78838], [-156.03368, 19.79047], [-156.03051, 19.79026], [-156.029, 19.79082], [-156.02766, 19.79246], [-156.0261, 19.79278], [-156.02565, 19.79546], [-156.02283, 19.796], [-156.02256, 19.79639], [-156.02221, 19.7958], [-156.0216, 19.79586], [-156.02077, 19.79682], [-156.02031, 19.79831], [-156.01861, 19.79923], [-156.01827, 19.80006], [-156.01732, 19.80072], [-156.01714, 19.80161], [-156.01578, 19.80132], [-156.01486, 19.80179], [-156.01453, 19.80258], [-156.01371, 19.8029], [-156.01375, 19.80337], [-156.01345, 19.8036], [-156.01387, 19.80513], [-156.01307, 19.80656], [-156.00903, 19.80804], [-156.00828, 19.80948], [-156.00697, 19.81005], [-156.00662, 19.81113], [-156.00702, 19.81246], [-156.0055, 19.81444], [-156.0041, 19.81454], [-156.00267, 19.81417], [-156.00164, 19.81446], [-156.00113, 19.81498], [-156.00157, 19.81821], [-156.00106, 19.81825], [-156.00108, 19.81937], [-155.99951, 19.81835], [-155.99812, 19.8191], [-155.99679, 19.82189], [-155.99749, 19.82238], [-155.99776, 19.82311], [-155.99723, 19.82391], [-155.99759, 19.82433], [-155.99746, 19.82567], [-155.9962, 19.82645], [-155.99526, 19.82664], [-155.99457, 19.82764], [-155.99104, 19.8298], [-155.98882, 19.83048], [-155.98839, 19.83105], [-155.98744, 19.83086], [-155.98635, 19.83112], [-155.98589, 19.83192], [-155.98654, 19.83358], [-155.98626, 19.83421], [-155.98675, 19.83451], [-155.98659, 19.83514], [-155.98576, 19.83482], [-155.98386, 19.83614], [-155.98378, 19.83655], [-155.98341, 19.83646], [-155.98227, 19.83716], [-155.98186, 19.83759], [-155.98204, 19.83785], [-155.98174, 19.83778], [-155.9809, 19.83861], [-155.98104, 19.83943], [-155.98055, 19.84046], [-155.98063, 19.84116], [-155.97981, 19.84228], [-155.98, 19.84273], [-155.97933, 19.8429], [-155.97941, 19.84314], [-155.9779, 19.84339], [-155.97681, 19.84486], [-155.97696, 19.84518], [-155.97653, 19.84501], [-155.97645, 19.84536], [-155.97612, 19.8452], [-155.97536, 19.84553], [-155.9749, 19.84639], [-155.9738, 19.84708], [-155.974, 19.84732], [-155.97282, 19.84767], [-155.97283, 19.84795], [-155.97135, 19.84865], [-155.97015, 19.84865], [-155.97006, 19.84897], [-155.96927, 19.84926], [-155.96819, 19.84917], [-155.96743, 19.85005], [-155.96646, 19.85021], [-155.96604, 19.85073], [-155.96507, 19.85093], [-155.96509, 19.85126], [-155.96399, 19.85124], [-155.96167, 19.85219], [-155.96093, 19.85204], [-155.96003, 19.85234], [-155.95993, 19.85264], [-155.95903, 19.85255], [-155.95829, 19.853], [-155.95706, 19.853], [-155.95675, 19.85266], [-155.95613, 19.85248], [-155.95606, 19.85278], [-155.95492, 19.85214], [-155.95178, 19.85227], [-155.95142, 19.85274], [-155.95069, 19.85255], [-155.95044, 19.85291], [-155.95006, 19.85259], [-155.949, 19.85286], [-155.94896, 19.85314], [-155.94769, 19.85267], [-155.94641, 19.85391], [-155.94562, 19.85309], [-155.94534, 19.85334], [-155.94554, 19.85274], [-155.94528, 19.85252], [-155.94383, 19.85219], [-155.9422, 19.85018], [-155.94082, 19.84992], [-155.9401, 19.85031], [-155.93928, 19.85012], [-155.93875, 19.84953], [-155.93731, 19.84933], [-155.93083, 19.85217], [-155.9287, 19.85217], [-155.92633, 19.85418], [-155.92344, 19.85587], [-155.92281, 19.85597], [-155.92216, 19.85512], [-155.92103, 19.85527], [-155.92031, 19.85654], [-155.92047, 19.85826], [-155.92082, 19.85909], [-155.9217, 19.85976], [-155.92172, 19.86023], [-155.9223, 19.86042], [-155.92111, 19.85793], [-155.92185, 19.85746], [-155.92262, 19.86021], [-155.9225, 19.86192], [-155.9231, 19.86393], [-155.92389, 19.86504], [-155.9235, 19.8699], [-155.92267, 19.87096], [-155.92222, 19.87224], [-155.91873, 19.87497], [-155.91685, 19.87477], [-155.91499, 19.87579], [-155.91476, 19.87654], [-155.91518, 19.87848], [-155.91356, 19.87998], [-155.9126, 19.88149], [-155.9123, 19.88254], [-155.91274, 19.8838], [-155.91255, 19.88416], [-155.91049, 19.88562], [-155.90926, 19.88578], [-155.90838, 19.88546], [-155.90757, 19.88587], [-155.90686, 19.88708], [-155.90573, 19.88808], [-155.90531, 19.88966], [-155.90612, 19.89186], [-155.9054, 19.89285], [-155.90453, 19.89314], [-155.90441, 19.89378], [-155.90478, 19.89433], [-155.90668, 19.89554], [-155.90706, 19.89698], [-155.90624, 19.89716], [-155.90588, 19.89692], [-155.90598, 19.89719], [-155.905, 19.89758], [-155.90445, 19.89836], [-155.90467, 19.89865], [-155.9045, 19.89934], [-155.90348, 19.89921], [-155.90352, 19.89947], [-155.90282, 19.89944], [-155.90093, 19.9003], [-155.90096, 19.90116], [-155.90186, 19.90202], [-155.90165, 19.90296], [-155.90123, 19.90299], [-155.90096, 19.90383], [-155.90143, 19.90517], [-155.90099, 19.90574], [-155.90035, 19.90581], [-155.90022, 19.90701], [-155.89892, 19.90924], [-155.89654, 19.90928], [-155.89482, 19.91004], [-155.89475, 19.9104], [-155.89516, 19.91081], [-155.89475, 19.91105], [-155.89338, 19.91078], [-155.89187, 19.91151], [-155.89093, 19.91159], [-155.89018, 19.91215], [-155.89025, 19.9124], [-155.88974, 19.91246], [-155.88991, 19.91275], [-155.8884, 19.91317], [-155.88771, 19.91391], [-155.88733, 19.91491], [-155.88759, 19.91645], [-155.88843, 19.9172], [-155.89004, 19.91767], [-155.89128, 19.91996], [-155.89092, 19.92039], [-155.89078, 19.92168], [-155.89115, 19.92185], [-155.89086, 19.92229], [-155.89125, 19.92244], [-155.89167, 19.92374], [-155.89107, 19.92425], [-155.89065, 19.92531], [-155.88938, 19.92596], [-155.88834, 19.92609], [-155.88845, 19.92653], [-155.88801, 19.92654], [-155.88777, 19.92621], [-155.88698, 19.92643], [-155.88709, 19.92603], [-155.88661, 19.92653], [-155.88862, 19.92716], [-155.88941, 19.92803], [-155.88913, 19.92852], [-155.88949, 19.92861], [-155.88963, 19.92905], [-155.88906, 19.92969], [-155.88849, 19.92929], [-155.88845, 19.9296], [-155.88806, 19.9295], [-155.88832, 19.92973], [-155.88789, 19.92989], [-155.88799, 19.93037], [-155.88765, 19.93054], [-155.88786, 19.93127], [-155.88716, 19.93221], [-155.88663, 19.93264], [-155.88568, 19.93256], [-155.88544, 19.93289], [-155.88477, 19.93291], [-155.88477, 19.93374], [-155.88337, 19.93352], [-155.88263, 19.93369], [-155.88267, 19.93401], [-155.8818, 19.9342], [-155.88127, 19.93392], [-155.88086, 19.93427], [-155.88047, 19.93357], [-155.87882, 19.93383], [-155.87823, 19.93353], [-155.87777, 19.93376], [-155.87721, 19.9345], [-155.87759, 19.93713], [-155.87716, 19.93748], [-155.87734, 19.9389], [-155.87668, 19.9391], [-155.87679, 19.93984], [-155.87773, 19.94], [-155.87849, 19.94054], [-155.87858, 19.94097], [-155.87814, 19.94127], [-155.87848, 19.94148], [-155.87778, 19.94167], [-155.87798, 19.94209], [-155.87715, 19.94186], [-155.87784, 19.9427], [-155.87691, 19.94214], [-155.87731, 19.94308], [-155.87691, 19.94315], [-155.8765, 19.94257], [-155.87585, 19.94252], [-155.87529, 19.94293], [-155.87488, 19.94382], [-155.87402, 19.9441], [-155.87364, 19.94353], [-155.87329, 19.94382], [-155.8727, 19.94313], [-155.87285, 19.9425], [-155.87234, 19.9423], [-155.87179, 19.94225], [-155.86936, 19.94349], [-155.86994, 19.94427], [-155.86952, 19.94497], [-155.86869, 19.94501], [-155.86783, 19.94559], [-155.86808, 19.94704], [-155.86702, 19.94761], [-155.86371, 19.95138], [-155.86226, 19.95113], [-155.86135, 19.95151], [-155.86129, 19.95248], [-155.86198, 19.95278], [-155.86155, 19.95352], [-155.86134, 19.95506], [-155.85958, 19.9565], [-155.85925, 19.95725], [-155.85843, 19.9574], [-155.85834, 19.96048], [-155.85754, 19.96074], [-155.85689, 19.96191], [-155.85598, 19.96252], [-155.85593, 19.96332], [-155.85404, 19.96571], [-155.85328, 19.9658], [-155.85257, 19.96669], [-155.85216, 19.96665], [-155.85121, 19.96753], [-155.84961, 19.96809], [-155.84817, 19.9682], [-155.84713, 19.9679], [-155.84567, 19.96831], [-155.8432, 19.9698], [-155.84312, 19.97036], [-155.84207, 19.97135], [-155.84214, 19.97161], [-155.84141, 19.9716], [-155.83816, 19.97357], [-155.83732, 19.97354], [-155.83758, 19.97306], [-155.83729, 19.97274], [-155.83507, 19.97229], [-155.83429, 19.97278], [-155.83392, 19.97255], [-155.83371, 19.97317], [-155.83322, 19.97338], [-155.83281, 19.97281], [-155.83236, 19.97289], [-155.83227, 19.97386], [-155.83138, 19.97408]]], [[[-155.82952, 20.03751], [-155.8298, 20.03734], [-155.829, 20.03788], [-155.82952, 20.03751]]], [[[-155.83211, 20.03889], [-155.8321, 20.03891], [-155.83205, 20.0388], [-155.83211, 20.03889]]]]}}, {"type": "Feature", "properties": {"zone": "Moderately Wet"}, "geometry": {"type": "Polygon", "coordinates": [[[-155.64658, 20.04396], [-155.65361, 20.04325], [-155.66374, 20.0437], [-155.67554, 20.04531], [-155.68847, 20.04896], [-155.70519, 20.0558], [-155.72321, 20.06658], [-155.73299, 20.07486], [-155.7427, 20.08627], [-155.75105, 20.09713], [-155.75448, 20.10253], [-155.75331, 20.10381], [-155.75296, 20.10464], [-155.75314, 20.10549], [-155.75013, 20.104], [-155.7495, 20.10412], [-155.74743, 20.10558], [-155.74605, 20.10536], [-155.73733, 20.1004], [-155.73298, 20.09885], [-155.73216, 20.09745], [-155.73202, 20.09546], [-155.73252, 20.09416], [-155.73223, 20.09361], [-155.7292, 20.09238], [-155.72727, 20.09251], [-155.72623, 20.09217], [-155.71994, 20.08828], [-155.71828, 20.08641], [-155.7153, 20.08582], [-155.71387, 20.08493], [-155.71249, 20.08462], [-155.71195, 20.08385], [-155.70938, 20.08307], [-155.70602, 20.08082], [-155.70511, 20.07989], [-155.70306, 20.07917], [-155.70165, 20.07743], [-155.69899, 20.07594], [-155.69657, 20.07371], [-155.69306, 20.07245], [-155.69169, 20.0711], [-155.68892, 20.07085], [-155.68536, 20.0684], [-155.68437, 20.06844], [-155.68274, 20.06794], [-155.67931, 20.06797], [-155.67442, 20.06693], [-155.67057, 20.06505], [-155.66775, 20.06257], [-155.66768, 20.05985], [-155.66692, 20.05791], [-155.66388, 20.05459], [-155.65941, 20.05346], [-155.65642, 20.0518], [-155.65289, 20.05037], [-155.65093, 20.04908], [-155.64957, 20.04745], [-155.64787, 20.04744], [-155.64217, 20.04534], [-155.64658, 20.04396]]]}}]}