{"type": "FeatureCollection", "features": [{"type": "Feature", "properties": {"name": "NKSK"}, "geometry": {"type": "Polygon", "coordinates": [[[-155.59859, 19.48199], [-155.59798, 19.49135], [-155.5985, 19.49384], [-155.60021, 19.49692], [-155.60631, 19.50108], [-155.6115, 19.50367], [-155.61596, 19.50707], [-155.62087, 19.51533], [-155.62215, 19.51633], [-155.62514, 19.52039], [-155.62825, 19.52194], [-155.63257, 19.52331], [-155.63754, 19.52678], [-155.63787, 19.52755], [-155.63934, 19.52838], [-155.64179, 19.53197], [-155.64415, 19.53377], [-155.64516, 19.53578], [-155.64891, 19.54001], [-155.65175, 19.54194], [-155.65306, 19.54438], [-155.6569, 19.54754], [-155.6579, 19.55014], [-155.66137, 19.55272], [-155.66238, 19.55452], [-155.6651, 19.55554], [-155.66675, 19.55677], [-155.67185, 19.56266], [-155.67869, 19.56718], [-155.68331, 19.56964], [-155.6848, 19.57452], [-155.68524, 19.57768], [-155.68783, 19.58273], [-155.69239, 19.58485], [-155.69529, 19.58718], [-155.69605, 19.58879], [-155.69905, 19.59135], [-155.69898, 19.59415], [-155.69997, 19.59595], [-155.70317, 19.59787], [-155.70649, 19.60131], [-155.70898, 19.60207], [-155.71241, 19.60548], [-155.71453, 19.60641], [-155.71791, 19.60678], [-155.72352, 19.60954], [-155.72922, 19.61081], [-155.73313, 19.61259], [-155.73922, 19.61878], [-155.74151, 19.61954], [-155.74611, 19.62214], [-155.75038, 19.62693], [-155.75486, 19.62955], [-155.76502, 19.63218], [-155.76888, 19.6322], [-155.77255, 19.63361], [-155.7767, 19.63597], [-155.77983, 19.6384], [-155.78147, 19.64186], [-155.78912, 19.6506], [-155.79245, 19.65121], [-155.79337, 19.65082], [-155.7946, 19.65172], [-155.80915, 19.64953], [-155.81256, 19.65032], [-155.8134, 19.65182], [-155.81504, 19.65222], [-155.81701, 19.65565], [-155.81803, 19.65608], [-155.81904, 19.65745], [-155.81884, 19.65916], [-155.818, 19.66084], [-155.81764, 19.6642], [-155.81929, 19.66516], [-155.82097, 19.66788], [-155.82301, 19.66763], [-155.82475, 19.66888], [-155.82613, 19.66907], [-155.82622, 19.67078], [-155.82791, 19.67288], [-155.82722, 19.67643], [-155.82889, 19.6787], [-155.83058, 19.67894], [-155.83135, 19.68113], [-155.8342, 19.68178], [-155.83421, 19.68239], [-155.83814, 19.68534], [-155.83859, 19.68696], [-155.84202, 19.68818], [-155.84368, 19.68829], [-155.84749, 19.69112], [-155.84904, 19.69133], [-155.85027, 19.69222], [-155.85294, 19.69226], [-155.85471, 19.69353], [-155.85708, 19.69275], [-155.85944, 19.69269], [-155.8603, 19.69347], [-155.8604, 19.69424], [-155.86257, 19.6945], [-155.86366, 19.69565], [-155.86631, 19.69596], [-155.86736, 19.6952], [-155.87036, 19.69619], [-155.87134, 19.69753], [-155.87527, 19.69885], [-155.87775, 19.70201], [-155.88028, 19.7021], [-155.88188, 19.70356], [-155.88368, 19.7038], [-155.88404, 19.70494], [-155.88576, 19.70521], [-155.88922, 19.70859], [-155.89043, 19.70851], [-155.8944, 19.71018], [-155.90001, 19.71115], [-155.90553, 19.71335], [-155.90699, 19.71485], [-155.90672, 19.71683], [-155.91014, 19.71793], [-155.91235, 19.71932], [-155.91374, 19.7193], [-155.9167, 19.72195], [-155.92138, 19.72052], [-155.92287, 19.72074], [-155.92538, 19.72456], [-155.92713, 19.72478], [-155.93054, 19.72748], [-155.93132, 19.72938], [-155.93214, 19.72993], [-155.93227, 19.73114], [-155.93522, 19.73153], [-155.93914, 19.73448], [-155.94094, 19.73429], [-155.94145, 19.7351], [-155.94434, 19.73606], [-155.94467, 19.73683], [-155.94738, 19.73739], [-155.94849, 19.73821], [-155.95069, 19.74196], [-155.95457, 19.74522], [-155.96789, 19.75037], [-155.97012, 19.75229], [-155.97333, 19.75335], [-155.9752, 19.75479], [-155.97896, 19.75661], [-155.98108, 19.76023], [-155.98424, 19.76239], [-155.99017, 19.76286], [-155.99769, 19.76572], [-156.00167, 19.76435], [-156.00497, 19.76394], [-156.01003, 19.7619], [-156.01874, 19.76422], [-156.02309, 19.76434], [-156.02877, 19.76931], [-156.03128, 19.77065], [-156.03207, 19.77205], [-156.03556, 19.77384], [-156.03597, 19.77556], [-156.03693, 19.77673], [-156.03952, 19.77724], [-156.04032, 19.77817], [-156.04052, 19.78057], [-156.04006, 19.78224], [-156.0397, 19.78167], [-156.03811, 19.78124], [-156.03668, 19.78305], [-156.03715, 19.7847], [-156.03878, 19.78679], [-156.03828, 19.78796], [-156.03601, 19.78847], [-156.0338, 19.79055], [-156.03063, 19.79034], [-156.02912, 19.7909], [-156.02778, 19.79254], [-156.02622, 19.79286], [-156.02577, 19.79555], [-156.02268, 19.79647], [-156.02233, 19.79589], [-156.02172, 19.79594], [-156.02043, 19.79839], [-156.01873, 19.79932], [-156.01744, 19.80081], [-156.01726, 19.80169], [-156.01589, 19.8014], [-156.01498, 19.80187], [-156.01357, 19.80368], [-156.01399, 19.80521], [-156.01319, 19.80664], [-156.00915, 19.80812], [-156.0084, 19.80956], [-156.00708, 19.81013], [-156.00674, 19.81121], [-156.00714, 19.81254], [-156.00562, 19.81452], [-156.00279, 19.81425], [-156.00125, 19.81506], [-156.00169, 19.81797], [-156.00118, 19.81834], [-156.00132, 19.81933], [-155.99963, 19.81843], [-155.99824, 19.81918], [-155.99691, 19.82197], [-155.99788, 19.82319], [-155.99735, 19.824], [-155.99771, 19.82441], [-155.99758, 19.82575], [-155.99538, 19.82672], [-155.99469, 19.82772], [-155.99116, 19.82989], [-155.98894, 19.83056], [-155.98851, 19.83113], [-155.98647, 19.8312], [-155.98601, 19.832], [-155.98671, 19.83522], [-155.98588, 19.83491], [-155.9839, 19.83663], [-155.98239, 19.83724], [-155.98216, 19.83793], [-155.98102, 19.83869], [-155.98116, 19.83951], [-155.98075, 19.84124], [-155.97993, 19.84236], [-155.98012, 19.84281], [-155.97802, 19.84347], [-155.97708, 19.84526], [-155.97548, 19.84561], [-155.97392, 19.84716], [-155.97412, 19.8474], [-155.97147, 19.84873], [-155.96831, 19.84925], [-155.96755, 19.85013], [-155.96658, 19.85029], [-155.96521, 19.85134], [-155.96105, 19.85212], [-155.96005, 19.85272], [-155.95715, 19.85309], [-155.95504, 19.85222], [-155.95191, 19.85235], [-155.95155, 19.85282], [-155.95018, 19.85267], [-155.94908, 19.85322], [-155.94781, 19.85274], [-155.94653, 19.85399], [-155.94574, 19.85317], [-155.94533, 19.85334], [-155.9454, 19.8526], [-155.94383, 19.85219], [-155.94232, 19.85026], [-155.94094, 19.85], [-155.94022, 19.85039], [-155.93743, 19.84941], [-155.93095, 19.85225], [-155.92882, 19.85225], [-155.92356, 19.85595], [-155.92282, 19.85598], [-155.92228, 19.8552], [-155.92115, 19.85535], [-155.92043, 19.85662], [-155.92059, 19.85834], [-155.9223, 19.86042], [-155.92111, 19.85793], [-155.92196, 19.85752], [-155.92274, 19.86029], [-155.92263, 19.862], [-155.92402, 19.86512], [-155.92362, 19.86998], [-155.92234, 19.87231], [-155.91886, 19.87504], [-155.91697, 19.87485], [-155.91512, 19.87587], [-155.9153, 19.87856], [-155.91272, 19.88157], [-155.91267, 19.88424], [-155.91061, 19.8857], [-155.9085, 19.88554], [-155.90769, 19.88595], [-155.90585, 19.88815], [-155.90543, 19.88974], [-155.90624, 19.89193], [-155.90552, 19.89293], [-155.90466, 19.89322], [-155.90453, 19.89385], [-155.90679, 19.89559], [-155.90718, 19.89706], [-155.906, 19.89699], [-155.90512, 19.89766], [-155.90457, 19.89843], [-155.90462, 19.89942], [-155.9036, 19.89929], [-155.90105, 19.90037], [-155.90108, 19.90123], [-155.90198, 19.90209], [-155.90108, 19.9039], [-155.90155, 19.90525], [-155.90047, 19.90588], [-155.90034, 19.90709], [-155.89904, 19.90932], [-155.89667, 19.90935], [-155.89494, 19.91011], [-155.89529, 19.91088], [-155.89487, 19.91113], [-155.8935, 19.91086], [-155.89105, 19.91166], [-155.88986, 19.91254], [-155.89003, 19.91283], [-155.88852, 19.91325], [-155.88783, 19.91399], [-155.88745, 19.91499], [-155.88771, 19.91653], [-155.89013, 19.9177], [-155.8914, 19.92004], [-155.8909, 19.92176], [-155.89127, 19.92185], [-155.89098, 19.92236], [-155.89179, 19.92382], [-155.89077, 19.92539], [-155.88846, 19.92616], [-155.88857, 19.9266], [-155.88699, 19.92647], [-155.88721, 19.92611], [-155.88674, 19.9266], [-155.88869, 19.92719], [-155.88975, 19.92912], [-155.88918, 19.92977], [-155.88818, 19.92957], [-155.88799, 19.93135], [-155.88728, 19.93228], [-155.88489, 19.93298], [-155.88489, 19.93382], [-155.88349, 19.93359], [-155.88094, 19.93435], [-155.88059, 19.93365], [-155.8779, 19.93384], [-155.87733, 19.93457], [-155.87771, 19.9372], [-155.87728, 19.93756], [-155.87746, 19.93898], [-155.87681, 19.93917], [-155.87691, 19.93991], [-155.87861, 19.94061], [-155.87826, 19.94135], [-155.8786, 19.94156], [-155.87791, 19.94174], [-155.8781, 19.94216], [-155.87727, 19.94193], [-155.87796, 19.94278], [-155.87703, 19.94222], [-155.87743, 19.94315], [-155.87703, 19.94322], [-155.87597, 19.94259], [-155.87501, 19.94389], [-155.87406, 19.94419], [-155.87376, 19.94361], [-155.8733, 19.94391], [-155.87246, 19.94237], [-155.86948, 19.94357], [-155.87007, 19.94434], [-155.86965, 19.94504], [-155.86795, 19.94566], [-155.86821, 19.94712], [-155.86715, 19.94769], [-155.86383, 19.95146], [-155.86238, 19.9512], [-155.86147, 19.95159], [-155.86142, 19.95255], [-155.86212, 19.95282], [-155.86146, 19.95513], [-155.85937, 19.95732], [-155.85856, 19.95747], [-155.85846, 19.96055], [-155.85767, 19.96081], [-155.8561, 19.96259], [-155.85606, 19.96339], [-155.85416, 19.96578], [-155.84974, 19.96817], [-155.84725, 19.96797], [-155.84579, 19.96838], [-155.84332, 19.96988], [-155.84226, 19.97168], [-155.84154, 19.97167], [-155.8379, 19.97378], [-155.83731, 19.97353], [-155.83741, 19.97281], [-155.83588, 19.97234], [-155.83404, 19.97263], [-155.83328, 19.97348], [-155.83293, 19.97288], [-155.83249, 19.97296], [-155.83239, 19.97393], [-155.8315, 19.97415], [-155.8312, 19.97567], [-155.83241, 19.97749], [-155.83121, 19.97744], [-155.83126, 19.9793], [-155.83027, 19.97864], [-155.82905, 19.98008], [-155.82847, 19.98236], [-155.82959, 19.98408], [-155.83009, 19.98449], [-155.83101, 19.98436], [-155.83128, 19.98518], [-155.82994, 19.987], [-155.83007, 19.98798], [-155.82914, 19.98785], [-155.82893, 19.98845], [-155.82792, 19.98844], [-155.82774, 19.9893], [-155.827, 19.98974], [-155.82617, 19.99258], [-155.82591, 19.99448], [-155.82637, 19.99525], [-155.82739, 19.9955], [-155.82748, 19.99705], [-155.82835, 19.99769], [-155.82746, 19.99842], [-155.82815, 19.99977], [-155.82683, 20.00235], [-155.82705, 20.00276], [-155.82583, 20.00283], [-155.82504, 20.00378], [-155.82511, 20.00577], [-155.82681, 20.00651], [-155.82656, 20.00692], [-155.82699, 20.0078], [-155.82514, 20.01027], [-155.82596, 20.01131], [-155.82494, 20.0126], [-155.82553, 20.01358], [-155.82486, 20.01377], [-155.82561, 20.01442], [-155.82534, 20.01573], [-155.82359, 20.01583], [-155.82344, 20.01714], [-155.82283, 20.01783], [-155.82279, 20.01866], [-155.8234, 20.01918], [-155.82332, 20.02082], [-155.82255, 20.02191], [-155.82282, 20.02244], [-155.82241, 20.02306], [-155.82351, 20.02466], [-155.82367, 20.02631], [-155.82312, 20.02808], [-155.8233, 20.02871], [-155.82569, 20.02741], [-155.82877, 20.02885], [-155.83383, 20.03445], [-155.83404, 20.03738], [-155.83372, 20.03458], [-155.83077, 20.03121], [-155.82935, 20.03135], [-155.82938, 20.03209], [-155.82738, 20.03235], [-155.82667, 20.03287], [-155.82611, 20.03197], [-155.82531, 20.03211], [-155.82983, 20.03731], [-155.829, 20.03788], [-155.82726, 20.03722], [-155.82903, 20.03798], [-155.83012, 20.0374], [-155.83168, 20.0385], [-155.83114, 20.03907], [-155.83174, 20.03951], [-155.832, 20.03859], [-155.83207, 20.03988], [-155.83301, 20.04117], [-155.83659, 20.0442], [-155.83649, 20.04484], [-155.83865, 20.04789], [-155.83826, 20.04892], [-155.83897, 20.05003], [-155.84371, 20.05238], [-155.84351, 20.05319], [-155.8445, 20.05361], [-155.84427, 20.05415], [-155.84318, 20.05445], [-155.84338, 20.05535], [-155.8441, 20.05582], [-155.84068, 20.05769], [-155.83612, 20.06225], [-155.83394, 20.06335], [-155.83194, 20.06635], [-155.82738, 20.06768], [-155.82621, 20.06978], [-155.82152, 20.07207], [-155.8197, 20.0736], [-155.8158, 20.07567], [-155.81427, 20.07799], [-155.81317, 20.08183], [-155.80851, 20.08346], [-155.80711, 20.08489], [-155.8019, 20.08733], [-155.79852, 20.08813], [-155.79701, 20.08936], [-155.79407, 20.09012], [-155.79005, 20.09201], [-155.78711, 20.09435], [-155.78329, 20.09625], [-155.78079, 20.09692], [-155.77855, 20.0966], [-155.77557, 20.09763], [-155.76928, 20.09815], [-155.76683, 20.09932], [-155.76277, 20.0995], [-155.75952, 20.10064], [-155.75774, 20.10064], [-155.75718, 20.10188], [-155.75508, 20.10194], [-155.75395, 20.10304], [-155.75296, 20.10464], [-155.75314, 20.10549], [-155.75013, 20.104], [-155.74743, 20.10558], [-155.74605, 20.10536], [-155.73733, 20.1004], [-155.73298, 20.09885], [-155.73216, 20.09745], [-155.73223, 20.09361], [-155.7292, 20.09238], [-155.72623, 20.09217], [-155.71994, 20.08828], [-155.71828, 20.08641], [-155.7153, 20.08582], [-155.71249, 20.08462], [-155.71195, 20.08385], [-155.70938, 20.08307], [-155.70511, 20.07989], [-155.70306, 20.07917], [-155.70165, 20.07743], [-155.69899, 20.07594], [-155.69657, 20.07371], [-155.69306, 20.07245], [-155.69169, 20.0711], [-155.68892, 20.07085], [-155.68536, 20.0684], [-155.67776, 20.06767], [-155.67442, 20.06693], [-155.67194, 20.06581], [-155.66775, 20.06257], [-155.66768, 20.05985], [-155.66692, 20.05791], [-155.66388, 20.05459], [-155.65941, 20.05346], [-155.65289, 20.05037], [-155.65093, 20.04908], [-155.64957, 20.04745], [-155.64787, 20.04744], [-155.64225, 20.04552], [-155.64226, 20.04264], [-155.64159, 20.04018], [-155.63905, 20.03616], [-155.63791, 20.03316], [-155.63819, 20.02928], [-155.63785, 20.02691], [-155.63661, 20.02446], [-155.63305, 20.00912], [-155.62948, 19.99918], [-155.62711, 19.99501], [-155.6214, 19.989], [-155.61628, 19.98657], [-155.61419, 19.98524], [-155.61317, 19.98393], [-155.60622, 19.98062], [-155.60327, 19.97756], [-155.59933, 19.9765], [-155.59606, 19.97391], [-155.59528, 19.97195], [-155.59164, 19.96898], [-155.5897, 19.96389], [-155.58954, 19.95963], [-155.58838, 19.95802], [-155.58644, 19.9571], [-155.58271, 19.95671], [-155.57763, 19.95741], [-155.57459, 19.95666], [-155.57075, 19.95687], [-155.56807, 19.95636], [-155.56149, 19.95356], [-155.56095, 19.9528], [-155.55725, 19.95099], [-155.55601, 19.94981], [-155.55146, 19.94851], [-155.54677, 19.94603], [-155.5434, 19.94247], [-155.54157, 19.93532], [-155.53946, 19.9305], [-155.53889, 19.92782], [-155.53737, 19.92707], [-155.53657, 19.92563], [-155.53399, 19.9242], [-155.53265, 19.92064], [-155.53321, 19.9191], [-155.5328, 19.91741], [-155.52815, 19.9121], [-155.527, 19.90752], [-155.52565, 19.90667], [-155.5202, 19.8876], [-155.51725, 19.88363], [-155.51602, 19.87973], [-155.50615, 19.86746], [-155.50064, 19.86393], [-155.49984, 19.86239], [-155.49554, 19.85765], [-155.49219, 19.85475], [-155.4906, 19.8492], [-155.48974, 19.84765], [-155.48689, 19.84519], [-155.48562, 19.84187], [-155.4849, 19.83812], [-155.48278, 19.83483], [-155.47998, 19.82899], [-155.47872, 19.82769], [-155.47794, 19.82551], [-155.47544, 19.82547], [-155.47459, 19.8263], [-155.47322, 19.8264], [-155.46942, 19.82583], [-155.46868, 19.82509], [-155.46914, 19.8228], [-155.4681, 19.82113], [-155.46797, 19.81927], [-155.46952, 19.81836], [-155.47209, 19.81493], [-155.47311, 19.81478], [-155.47337, 19.81424], [-155.47238, 19.81212], [-155.47228, 19.80869], [-155.47091, 19.80525], [-155.46813, 19.80391], [-155.46614, 19.80002], [-155.46489, 19.79899], [-155.46523, 19.79061], [-155.46458, 19.77533], [-155.46641, 19.76522], [-155.46792, 19.75318], [-155.47308, 19.72533], [-155.47932, 19.69812], [-155.48039, 19.69425], [-155.48179, 19.69188], [-155.48222, 19.68693], [-155.48362, 19.68177], [-155.49168, 19.66338], [-155.50093, 19.63649], [-155.51154, 19.61823], [-155.52125, 19.59875], [-155.52887, 19.58737], [-155.53235, 19.5802], [-155.54145, 19.56578], [-155.55289, 19.54524], [-155.57681, 19.50933], [-155.58129, 19.50152], [-155.58208, 19.49665], [-155.58343, 19.49476], [-155.58636, 19.49342], [-155.58755, 19.49123], [-155.5877, 19.4873], [-155.59337, 19.4867], [-155.59561, 19.48571], [-155.5974, 19.48282], [-155.59859, 19.48199]]]}}]}